LEMUR-2-ANDIS           
1 42838U 17042P   26068.55941107  .00023598  00000+0  79875-3 0  9998
2 42838  97.3659 249.7950 0009101   4.3248 355.8070 15.30557934473198
STARLINK-31267          
1 59468U 24068P   26067.26591769 -.00000770  00000+0 -18480-4 0  9998
2 59468  43.0021  38.3404 0001137 277.3139  82.7584 15.27568172108355
